{
  "type": "FeatureCollection",
  "features": [
    {
      "type": "Feature",
      "properties": {
        "norad_id": 30103,
        "name": "FENGYUN 1C DEB",
        "group": "fengyun-1c-debris",
        "lat": 11.904912066035743,
        "lon": 139.1987641062496,
        "alt_km": 766.8504548907777,
        "timestamp": "2025-12-02T07:10:09.389237+00:00",
        "meta_object_name": "FENGYUN 1C DEB",
        "meta_object_id": "1999-025RG",
        "meta_epoch": "2025-12-01T12:23:30.796224",
        "meta_mean_motion": 14.24820947,
        "meta_eccentricity": 0.00637029,
        "meta_inclination": 99.244,
        "meta_ra_of_asc_node": 316.4079,
        "meta_arg_of_pericenter": 151.609,
        "meta_mean_anomaly": 325.0542,
        "meta_ephemeris_type": 0,
        "meta_classification_type": "U",
        "meta_norad_cat_id": 30103,
        "meta_element_set_no": 999,
        "meta_rev_at_epoch": 97759,
        "meta_bstar": 0.00047088744,
        "meta_mean_motion_dot": 1.073e-05,
        "meta_mean_motion_ddot": 0,
        "tle_line1": "1 30103U 99025RG  25335.51632866  .00001073  00000+0  47089-3 0  9998",
        "tle_line2": "2 30103  99.2440 316.4079 0063702 151.6090 325.0542 14.24820947977596"
      },
      "geometry": {
        "type": "Point",
        "coordinates": [
          139.1987641062496,
          11.904912066035743
        ]
      }
    },
    {
      "type": "Feature",
      "properties": {
        "norad_id": 30104,
        "name": "FENGYUN 1C DEB",
        "group": "fengyun-1c-debris",
        "lat": -15.101053112626662,
        "lon": 176.11845408749974,
        "alt_km": 858.6158551711123,
        "timestamp": "2025-12-02T07:10:09.389247+00:00",
        "meta_object_name": "FENGYUN 1C DEB",
        "meta_object_id": "1999-025RH",
        "meta_epoch": "2025-12-01T19:32:20.303232",
        "meta_mean_motion": 14.25607394,
        "meta_eccentricity": 0.0073709,
        "meta_inclination": 98.3602,
        "meta_ra_of_asc_node": 173.3822,
        "meta_arg_of_pericenter": 140.1851,
        "meta_mean_anomaly": 239.4223,
        "meta_ephemeris_type": 0,
        "meta_classification_type": "U",
        "meta_norad_cat_id": 30104,
        "meta_element_set_no": 999,
        "meta_rev_at_epoch": 97737,
        "meta_bstar": 0.00072761,
        "meta_mean_motion_dot": 1.732e-05,
        "meta_mean_motion_ddot": 0,
        "tle_line1": "1 30104U 99025RH  25335.81412388  .00001732  00000+0  72761-3 0  9994",
        "tle_line2": "2 30104  98.3602 173.3822 0073709 140.1851 239.4223 14.25607394977379"
      },
      "geometry": {
        "type": "Point",
        "coordinates": [
          176.11845408749974,
          -15.101053112626662
        ]
      }
    },
    {
      "type": "Feature",
      "properties": {
        "norad_id": 30105,
        "name": "FENGYUN 1C DEB",
        "group": "fengyun-1c-debris",
        "lat": -72.54265058270445,
        "lon": 113.87677137261208,
        "alt_km": 952.6823666104065,
        "timestamp": "2025-12-02T07:10:09.389258+00:00",
        "meta_object_name": "FENGYUN 1C DEB",
        "meta_object_id": "1999-025RJ",
        "meta_epoch": "2025-12-01T09:42:59.421888",
        "meta_mean_motion": 14.21369399,
        "meta_eccentricity": 0.01997791,
        "meta_inclination": 98.5931,
        "meta_ra_of_asc_node": 321.7453,
        "meta_arg_of_pericenter": 106.6557,
        "meta_mean_anomaly": 255.6656,
        "meta_ephemeris_type": 0,
        "meta_classification_type": "U",
        "meta_norad_cat_id": 30105,
        "meta_element_set_no": 999,
        "meta_rev_at_epoch": 97601,
        "meta_bstar": 0.00030963095,
        "meta_mean_motion_dot": 7.84e-06,
        "meta_mean_motion_ddot": 0,
        "tle_line1": "1 30105U 99025RJ  25335.40485442  .00000784  00000+0  30963-3 0  9995",
        "tle_line2": "2 30105  98.5931 321.7453 0199779 106.6557 255.6656 14.21369399976018"
      },
      "geometry": {
        "type": "Point",
        "coordinates": [
          113.87677137261208,
          -72.54265058270445
        ]
      }
    },
    {
      "type": "Feature",
      "properties": {
        "norad_id": 30106,
        "name": "FENGYUN 1C DEB",
        "group": "fengyun-1c-debris",
        "lat": 26.62933413337761,
        "lon": -122.11404830154365,
        "alt_km": 646.3756788351366,
        "timestamp": "2025-12-02T07:10:09.389268+00:00",
        "meta_object_name": "FENGYUN 1C DEB",
        "meta_object_id": "1999-025RK",
        "meta_epoch": "2025-12-01T16:45:22.336416",
        "meta_mean_motion": 14.83754708,
        "meta_eccentricity": 0.0048436,
        "meta_inclination": 98.9237,
        "meta_ra_of_asc_node": 241.7339,
        "meta_arg_of_pericenter": 236.419,
        "meta_mean_anomaly": 184.4397,
        "meta_ephemeris_type": 0,
        "meta_classification_type": "U",
        "meta_norad_cat_id": 30106,
        "meta_element_set_no": 999,
        "meta_rev_at_epoch": 98381,
        "meta_bstar": 0.0050123,
        "meta_mean_motion_dot": 0.00042525,
        "meta_mean_motion_ddot": 0,
        "tle_line1": "1 30106U 99025RK  25335.69817519  .00042525  00000+0  50123-2 0  9999",
        "tle_line2": "2 30106  98.9237 241.7339 0048436 236.4190 184.4397 14.83754708983811"
      },
      "geometry": {
        "type": "Point",
        "coordinates": [
          -122.11404830154365,
          26.62933413337761
        ]
      }
    },
    {
      "type": "Feature",
      "properties": {
        "norad_id": 30107,
        "name": "FENGYUN 1C DEB",
        "group": "fengyun-1c-debris",
        "lat": 63.288956158497854,
        "lon": 15.279232422719986,
        "alt_km": 881.6959302583209,
        "timestamp": "2025-12-02T07:10:09.389278+00:00",
        "meta_object_name": "FENGYUN 1C DEB",
        "meta_object_id": "1999-025RL",
        "meta_epoch": "2025-12-01T02:00:11.552256",
        "meta_mean_motion": 14.14412642,
        "meta_eccentricity": 0.012641,
        "meta_inclination": 98.8488,
        "meta_ra_of_asc_node": 32.1093,
        "meta_arg_of_pericenter": 309.0438,
        "meta_mean_anomaly": 49.9539,
        "meta_ephemeris_type": 0,
        "meta_classification_type": "U",
        "meta_norad_cat_id": 30107,
        "meta_element_set_no": 999,
        "meta_rev_at_epoch": 97396,
        "meta_bstar": 9.4457741e-05,
        "meta_mean_motion_dot": 1.5e-06,
        "meta_mean_motion_ddot": 0,
        "tle_line1": "1 30107U 99025RL  25335.08346704  .00000150  00000+0  94458-4 0  9995",
        "tle_line2": "2 30107  98.8488  32.1093 0126410 309.0438  49.9539 14.14412642973969"
      },
      "geometry": {
        "type": "Point",
        "coordinates": [
          15.279232422719986,
          63.288956158497854
        ]
      }
    },
    {
      "type": "Feature",
      "properties": {
        "norad_id": 30108,
        "name": "FENGYUN 1C DEB",
        "group": "fengyun-1c-debris",
        "lat": -43.967485854011485,
        "lon": 133.96354747884328,
        "alt_km": 983.2930366265027,
        "timestamp": "2025-12-02T07:10:09.389288+00:00",
        "meta_object_name": "FENGYUN 1C DEB",
        "meta_object_id": "1999-025RM",
        "meta_epoch": "2025-12-01T10:29:24.652896",
        "meta_mean_motion": 14.17140561,
        "meta_eccentricity": 0.01980811,
        "meta_inclination": 98.6593,
        "meta_ra_of_asc_node": 321.5767,
        "meta_arg_of_pericenter": 54.5456,
        "meta_mean_anomaly": 96.3681,
        "meta_ephemeris_type": 0,
        "meta_classification_type": "U",
        "meta_norad_cat_id": 30108,
        "meta_element_set_no": 999,
        "meta_rev_at_epoch": 97438,
        "meta_bstar": 0.00036442665,
        "meta_mean_motion_dot": 8.47e-06,
        "meta_mean_motion_ddot": 0,
        "tle_line1": "1 30108U 99025RM  25335.43709089  .00000847  00000+0  36443-3 0  9996",
        "tle_line2": "2 30108  98.6593 321.5767 0198081  54.5456  96.3681 14.17140561974385"
      },
      "geometry": {
        "type": "Point",
        "coordinates": [
          133.96354747884328,
          -43.967485854011485
        ]
      }
    },
    {
      "type": "Feature",
      "properties": {
        "norad_id": 30109,
        "name": "FENGYUN 1C DEB",
        "group": "fengyun-1c-debris",
        "lat": -36.90052536706234,
        "lon": -23.30050204737351,
        "alt_km": 778.2190178697938,
        "timestamp": "2025-12-02T07:10:09.389298+00:00",
        "meta_object_name": "FENGYUN 1C DEB",
        "meta_object_id": "1999-025RN",
        "meta_epoch": "2025-12-01T13:19:02.920224",
        "meta_mean_motion": 14.17515934,
        "meta_eccentricity": 0.01671979,
        "meta_inclination": 98.5074,
        "meta_ra_of_asc_node": 329.5342,
        "meta_arg_of_pericenter": 264.8946,
        "meta_mean_anomaly": 222.5399,
        "meta_ephemeris_type": 0,
        "meta_classification_type": "U",
        "meta_norad_cat_id": 30109,
        "meta_element_set_no": 999,
        "meta_rev_at_epoch": 97393,
        "meta_bstar": 0.00045426458,
        "meta_mean_motion_dot": 1.014e-05,
        "meta_mean_motion_ddot": 0,
        "tle_line1": "1 30109U 99025RN  25335.55489491  .00001014  00000+0  45426-3 0  9990",
        "tle_line2": "2 30109  98.5074 329.5342 0167197 264.8946 222.5399 14.17515934973939"
      },
      "geometry": {
        "type": "Point",
        "coordinates": [
          -23.30050204737351,
          -36.90052536706234
        ]
      }
    }
  ]
}